[{"OBJECT_NAME":"TIANMU-1 08","OBJECT_ID":"2023-101B","EPOCH":"2026-03-07T00:03:25.475616","MEAN_MOTION":15.29204229,"ECCENTRICITY":0.00063808,"INCLINATION":97.2717,"RA_OF_ASC_NODE":118.7901,"ARG_OF_PERICENTER":134.2174,"MEAN_ANOMALY":225.9592,"EPHEMERIS_TYPE":0,"CLASSIFICATION_TYPE":"U","NORAD_CAT_ID":57400,"ELEMENT_SET_NO":999,"REV_AT_EPOCH":14602,"BSTAR":1.4774513e-5,"MEAN_MOTION_DOT":3.46e-6,"MEAN_MOTION_DDOT":0},{"OBJECT_NAME":"STARLINK-36071","OBJECT_ID":"2025-278T","EPOCH":"2026-03-09T19:38:25.694016","MEAN_MOTION":15.27568665,"ECCENTRICITY":0.00013435,"INCLINATION":43.0007,"RA_OF_ASC_NODE":113.2174,"ARG_OF_PERICENTER":263.7429,"MEAN_ANOMALY":96.3269,"EPHEMERIS_TYPE":0,"CLASSIFICATION_TYPE":"U","NORAD_CAT_ID":66808,"ELEMENT_SET_NO":999,"REV_AT_EPOCH":1523,"BSTAR":0.0010319124,"MEAN_MOTION_DOT":0.00028233,"MEAN_MOTION_DDOT":0}]
