TIANMU-1 08             
1 57400U 23101B   26066.00237819  .00000346  00000+0  14775-4 0  9993
2 57400  97.2717 118.7901 0006380 134.2174 225.9592 15.29204229146020
STARLINK-36071          
1 66808U 25278T   26068.81835293  .00028233  00000+0  10319-2 0  9996
2 66808  43.0007 113.2174 0001344 263.7429  96.3269 15.27568665 15235
